NORAD_CAT_ID,OBJECT_NAME,OBJECT_TYPE,EPOCH,MEAN_MOTION,ECCENTRICITY,INCLINATION,RA_OF_ASC_NODE,ARG_OF_PERICENTER,MEAN_ANOMALY,BSTAR,MEAN_MOTION_DOT,MEAN_MOTION_DDOT,TLE_LINE0,TLE_LINE1,TLE_LINE2,SEMIMAJOR_AXIS,PERIOD,APOGEE,PERIGEE,DECAYED
55411.0,STARLINK-5605,PAYLOAD,2023-02-07 16:00:01,15.71720881,0.0003387,70.0081,70.081,271.0268,309.4321,-0.01091,-0.01269398,0.0,0 STARLINK-5605,1 55411U 23014W   23038.66668981 -.01269398  00000-0 -10910-1 0  9994,2 55411  70.0081  70.0810 0003387 271.0268 309.4321 15.71720881  1303,6732.116,91.619,356.261,351.7,0.0
55411.0,STARLINK-5605,PAYLOAD,2023-02-07 22:00:00,15.70989014,0.0003436,70.008,69.3767,265.5785,288.6254,-0.0097856,-0.01101311,0.0,0 STARLINK-5605,1 55411U 23014W   23038.91667824 -.01101311  00000-0 -97856-2 0  9992,2 55411  70.0080  69.3767 0003436 265.5785 288.6254 15.70989014  1308,6734.206,91.662,358.385,353.757,0.0
55411.0,STARLINK-5605,PAYLOAD,2023-02-08 06:00:00,15.7002407,0.0003274,70.0073,68.439,268.4538,9.8682,-0.0013721,-0.00162711,0.0,0 STARLINK-5605,1 55411U 23014W   23039.25001157 -.00162711  00000-0 -13721-2 0  9990,2 55411  70.0073  68.4390 0003274 268.4538   9.8682 15.70024070  1399,6736.965,91.718,361.036,356.624,0.0
55411.0,STARLINK-5605,PAYLOAD,2023-02-08 14:00:01,15.69930077,0.0003239,70.0067,67.5019,273.5824,88.1167,-2.1878e-05,-2.843e-05,0.0,0 STARLINK-5605,1 55411U 23014W   23039.58334491 -.00002843  00000-0 -21878-4 0  9999,2 55411  70.0067  67.5019 0003239 273.5824  88.1167 15.69930077  1441,6737.234,91.724,361.281,356.917,0.0
55411.0,STARLINK-5605,PAYLOAD,2023-02-08 20:00:01,15.69901099,0.0003193,70.006,66.7993,267.4613,66.7623,0.00018845,0.00022485,0.0,0 STARLINK-5605,1 55411U 23014W   23039.83334491  .00022485  00000-0  18845-3 0  9998,2 55411  70.0060  66.7993 0003193 267.4613  66.7623 15.69901099  1309,6737.317,91.726,361.333,357.031,0.0
55411.0,STARLINK-5605,PAYLOAD,2023-02-09 12:00:00,15.6989075,0.0003465,70.0023,64.9256,274.6181,226.2876,0.00023598,0.00028219,0.0,0 STARLINK-5605,1 55411U 23014W   23040.50001157  .00028219  00000-0  23598-3 0  9996,2 55411  70.0023  64.9256 0003465 274.6181 226.2876 15.69890750  1306,6737.347,91.726,361.546,356.877,0.0
55411.0,STARLINK-5605,PAYLOAD,2023-02-09 20:00:01,15.69879103,0.0003514,70.0014,63.9883,268.9177,315.3041,0.00067576,0.00081686,0.0,0 STARLINK-5605,1 55411U 23014W   23040.83334491  .00081686  00000-0  67576-3 0  9993,2 55411  70.0014  63.9883 0003514 268.9177 315.3041 15.69879103  1647,6737.38,91.727,361.612,356.877,0.0
55411.0,STARLINK-5605,PAYLOAD,2023-02-09 22:00:00,15.69858533,0.0003542,70.001,63.7541,266.7123,68.3298,0.0011899,0.0014497,0.0,0 STARLINK-5605,1 55411U 23014W   23040.91667824  .00144970  00000-0  11899-2 0  9993,2 55411  70.0010  63.7541 0003542 266.7123  68.3298 15.69858533  1306,6737.439,91.728,361.69,356.917,0.0
55411.0,STARLINK-5605,PAYLOAD,2023-02-10 02:00:01,15.6995015,0.0003529,70.0009,63.2855,265.3391,291.3288,-4.0788e-05,-5.12e-05,0.0,0 STARLINK-5605,1 55411U 23014W   23041.08334491 -.00005120  00000-0 -40788-4 0  9999,2 55411  70.0009  63.2855 0003529 265.3391 291.3288 15.69950150  1679,6737.177,91.723,361.419,356.664,0.0
55411.0,STARLINK-5605,PAYLOAD,2023-02-10 04:00:00,15.699817,0.0003588,70.0007,63.0512,266.403,41.1019,-0.00041791,-0.00050285,0.0,0 STARLINK-5605,1 55411U 23014W   23041.16667824 -.00050285  00000-0 -41791-3 0  9993,2 55411  70.0007  63.0512 0003588 266.4030  41.1019 15.69981700  1300,6737.086,91.721,361.369,356.534,0.0
55411.0,STARLINK-5605,PAYLOAD,2023-02-10 22:00:00,15.69834921,0.0003307,70.0,60.9427,269.8332,315.2417,0.001407,0.0017184,0.0,0 STARLINK-5605,1 55411U 23014W   23041.91667824  .00171840  00000-0  14070-2 0  9994,2 55411  70.0000  60.9427 0003307 269.8332 315.2417 15.69834921  1810,6737.506,91.729,361.599,357.143,0.0
55411.0,STARLINK-5605,PAYLOAD,2023-02-11 06:00:00,15.69987123,0.000337,70.0001,60.0057,274.3071,34.0464,-0.00055317,-0.00066377,0.0,0 STARLINK-5605,1 55411U 23014W   23042.25001157 -.00066377  00000-0 -55317-3 0  9993,2 55411  70.0001  60.0057 0003370 274.3071  34.0464 15.69987123  1868,6737.071,91.72,361.206,356.665,0.0
55411.0,STARLINK-5605,PAYLOAD,2023-02-11 14:00:01,15.69913176,0.0003399,69.9994,59.0683,281.8519,109.8991,-0.0003057,-0.00036794,0.0,0 STARLINK-5605,1 55411U 23014W   23042.58334491 -.00036794  00000-0 -30570-3 0  9993,2 55411  69.9994  59.0683 0003399 281.8519 109.8991 15.69913176  1302,6737.282,91.725,361.437,356.857,0.0
55411.0,STARLINK-5605,PAYLOAD,2023-02-11 22:00:00,15.69881473,0.0003305,69.9994,58.1311,277.0224,198.0446,0.00091457,0.00111025,0.0,0 STARLINK-5605,1 55411U 23014W   23042.91667824  .00111025  00000-0  91457-3 0  9999,2 55411  69.9994  58.1311 0003305 277.0224 198.0446 15.69881473  1968,6737.373,91.727,361.465,357.011,0.0
55411.0,STARLINK-5605,PAYLOAD,2023-02-12 00:00:00,15.69946917,0.0003323,69.9996,57.8968,276.4166,309.4628,-7.1041e-05,-8.754e-05,0.0,0 STARLINK-5605,1 55411U 23014W   23043.00001157 -.00008754  00000-0 -71041-4 0  9995,2 55411  69.9996  57.8968 0003323 276.4166 309.4628 15.69946917  1989,6737.186,91.723,361.29,356.812,0.0
55411.0,STARLINK-5605,PAYLOAD,2023-02-12 22:00:00,15.69858752,0.0003243,69.9999,55.3195,275.3966,89.6792,0.00119,0.00144978,0.0,0 STARLINK-5605,1 55411U 23014W   23043.91667824  .00144978  00000-0  11900-2 0  9997,2 55411  69.9999  55.3195 0003243 275.3966  89.6792 15.69858752  2129,6737.438,91.728,361.488,357.118,0.0
55411.0,STARLINK-5605,PAYLOAD,2023-02-13 06:00:00,15.69949422,0.0003444,70.0001,54.3825,278.0218,170.3746,-0.00051762,-0.00062061,0.0,0 STARLINK-5605,1 55411U 23014W   23044.25001157 -.00062061  00000-0 -51762-3 0  9991,2 55411  70.0001  54.3825 0003444 278.0218 170.3746 15.69949422  2175,6737.179,91.723,361.364,356.723,0.0
55411.0,STARLINK-5605,PAYLOAD,2023-02-13 14:00:01,15.69924365,0.0003465,69.9996,53.4453,278.0605,253.6734,-0.00018696,-0.00022633,0.0,0 STARLINK-5605,1 55411U 23014W   23044.58334491 -.00022633  00000-0 -18696-3 0  9997,2 55411  69.9996  53.4453 0003465 278.0605 253.6734 15.69924365  1300,6737.25,91.724,361.45,356.781,0.0
55411.0,STARLINK-5605,PAYLOAD,2023-02-13 22:00:00,15.69901361,0.0003435,69.9997,52.5081,269.0875,345.9794,0.00057253,0.00069134,0.0,0 STARLINK-5605,1 55411U 23014W   23044.91667824  .00069134  00000-0  57253-3 0  9990,2 55411  69.9997  52.5081 0003435 269.0875 345.9794 15.69901361  2284,6737.316,91.726,361.495,356.867,0.0
55411.0,STARLINK-5605,PAYLOAD,2023-02-14 00:00:00,15.69944631,0.0003382,69.9999,52.2739,269.5662,96.3218,-9.2027e-05,-0.00011273,0.0,0 STARLINK-5605,1 55411U 23014W   23045.00001157 -.00011273  00000-0 -92027-4 0  9994,2 55411  69.9999  52.2739 0003382 269.5662  96.3218 15.69944631  2299,6737.192,91.723,361.336,356.779,0.0
55411.0,STARLINK-5605,PAYLOAD,2023-02-14 12:12:32,15.69975211,0.0003846,70.0008,50.8429,268.7091,91.3664,0.00058076,0.00070361,0.0,0 STARLINK-5605,1 55411U 23014W   23045.50871371  .00070361  00000-0  58076-3 0  9998,2 55411  70.0008  50.8429 0003846 268.7091  91.3664 15.69975211  3317,6737.105,91.721,361.561,356.379,0.0
55411.0,STARLINK-5605,PAYLOAD,2023-02-15 03:30:04,15.69910888,0.0003452,69.9997,49.0516,271.3808,88.6992,0.00029101,0.00034906,0.0,0 STARLINK-5605,1 55411U 23014W   23046.14588233  .00034906  00000-0  29101-3 0  9993,2 55411  69.9997  49.0516 0003452 271.3808  88.6992 15.69910888  2475,6737.289,91.725,361.48,356.828,0.0
55411.0,STARLINK-5605,PAYLOAD,2023-02-15 12:40:34,15.69939201,0.0003366,69.9996,47.9769,272.8973,87.1838,0.00011512,0.00013661,0.0,0 STARLINK-5605,1 55411U 23014W   23046.52818131  .00013661  00000-0  11512-3 0  9990,2 55411  69.9996  47.9769 0003366 272.8973  87.1838 15.69939201  3478,6737.208,91.723,361.341,356.805,0.0
55411.0,STARLINK-5605,PAYLOAD,2023-02-15 18:47:35,15.69937056,0.0003556,69.9996,47.2602,267.6661,92.4128,8.2602e-05,9.736e-05,0.0,0 STARLINK-5605,1 55411U 23014W   23046.78304581  .00009736  00000-0  82602-4 0  9994,2 55411  69.9996  47.2602 0003556 267.6661  92.4128 15.69937056  2571,6737.214,91.723,361.475,356.683,0.0
55411.0,STARLINK-5605,PAYLOAD,2023-02-15 20:19:20,15.69932298,0.0003448,69.9995,47.0815,271.6684,88.4117,4.838e-05,5.61e-05,0.0,0 STARLINK-5605,1 55411U 23014W   23046.84676399  .00005610  00000-0  48380-4 0  9992,2 55411  69.9995  47.0815 0003448 271.6684  88.4117 15.69932298  3526,6737.228,91.724,361.416,356.77,0.0
55411.0,STARLINK-5605,PAYLOAD,2023-02-16 08:33:21,15.69914693,0.0003435,69.9984,45.648,270.7131,89.3671,-1.4489e-05,-1.954e-05,0.0,0 STARLINK-5605,1 55411U 23014W   23047.35650173 -.00001954  00000-0 -14489-4 0  9993,2 55411  69.9984  45.6480 0003435 270.7131  89.3671 15.69914693  2667,6737.278,91.725,361.457,356.829,0.0
55411.0,STARLINK-5605,PAYLOAD,2023-02-16 14:40:24,15.69847325,0.00037,69.998,44.9308,255.5366,104.5419,-0.00014649,-0.00017735,0.0,0 STARLINK-5605,1 55411U 23014W   23047.61140041 -.00017735  00000-0 -14649-3 0  9991,2 55411  69.9980  44.9308 0003700 255.5366 104.5419 15.69847325  3646,6737.471,91.729,361.829,356.843,0.0
55411.0,STARLINK-5605,PAYLOAD,2023-02-17 01:22:43,15.69813011,0.000331,69.998,43.6773,264.8866,95.1952,-0.0001808,-0.00021796,0.0,0 STARLINK-5605,1 55411U 23014W   23048.05744412 -.00021796  00000-0 -18080-3 0  9997,2 55411  69.9980  43.6773 0003310 264.8866  95.1952 15.69813011  2778,6737.569,91.731,361.664,357.204,0.0
55411.0,STARLINK-5605,PAYLOAD,2023-02-17 10:33:14,15.69833978,0.000345,69.9981,42.6021,263.4881,96.5922,-0.00011989,-0.0001455,0.0,0 STARLINK-5605,1 55411U 23014W   23048.43975181 -.00014550  00000-0 -11989-3 0  9999,2 55411  69.9981  42.6021 0003450 263.4881  96.5922 15.69833978  2834,6737.509,91.729,361.698,357.05,0.0
55411.0,STARLINK-5605,PAYLOAD,2023-02-17 12:04:59,15.69832603,0.0003372,69.9985,42.4231,266.6781,93.4029,-0.00014222,-0.00017214,0.0,0 STARLINK-5605,1 55411U 23014W   23048.50346446 -.00017214  00000-0 -14222-3 0  9996,2 55411  69.9985  42.4231 0003372 266.6781  93.4029 15.69832603  3789,6737.513,91.73,361.65,357.106,0.0
